STARLINK-30532          
1 58070U 23158V   26068.25529094  .00003865  00000+0  15373-3 0  9990
2 58070  43.0022  29.4830 0000765 276.0895  83.9869 15.26732748133504
LYNK TOWER 6            
1 59123U 24043AB  26068.89488777  .00011440  00000+0  40142-3 0  9996
2 59123  97.5426 204.1954 0009749 232.0253 128.0107 15.29548678111845
